
# Worst residual: 114.41 km
# MJD 58949.000000 (2020 Apr 10  0:00)
C0Z1JL1 = ZTF0Csc = C21KXA2 = ZTF0Czu = 'Multijunk'
1 89983U 00000AAQ 20101.49919926  .00000000  00000-0  00000-0 0  8089
2 89983 016.4019 345.7003 6949104 023.1725 184.3784 00.43474008    00

# Worst residual: 219.36 km
# MJD 58950.000000 (2020 Apr 11  0:00)
C0Z1JL1 = ZTF0Csc = C21KXA2 = ZTF0Czu = 'Multijunk'
1 89983U 00000AAQ 20102.49919926  .00000000  00000-0  00000-0 0  8080
2 89983 016.5120 345.9871 6954153 023.9680 339.4351 00.44316065    09

# Worst residual: 108.55 km
# MJD 58951.000000 (2020 Apr 12  0:00)
C0Z1JL1 = ZTF0Csc = C21KXA2 = ZTF0Czu = 'Multijunk'
1 89983U 00000AAQ 20103.49919926  .00000000  00000-0  00000-0 0  8081
2 89983 016.5799 346.0099 6921408 025.0693 136.4452 00.43568532    03

# Worst residual: 119.64 km
# MJD 58952.000000 (2020 Apr 13  0:00)
C0Z1JL1 = ZTF0Csc = C21KXA2 = ZTF0Czu = 'Multijunk'
1 89983U 00000AAQ 20104.49919926  .00000000  00000-0  00000-0 0  8082
2 89983 016.7290 346.3572 6915148 025.4252 290.9658 00.43731687    06

# Worst residual: 113.65 km
# MJD 58953.000000 (2020 Apr 14  0:00)
C0Z1JL1 = ZTF0Csc = C21KXA2 = ZTF0Czu = 'Multijunk'
1 89983U 00000AAQ 20105.49919926  .00000000  00000-0  00000-0 0  8083
2 89983 016.7553 346.3786 6904600 026.8516 088.3313 00.43786513    09

# Worst residual: 102.77 km
# MJD 58954.000000 (2020 Apr 15  0:00)
C0Z1JL1 = ZTF0Csc = C21KXA2 = ZTF0Czu = 'Multijunk'
1 89983U 00000AAQ 20106.49919926  .00000000  00000-0  00000-0 0  8084
2 89983 016.9199 346.6043 6879267 027.3762 242.7798 00.43522577    06

# Worst residual: 197.04 km
# MJD 58955.000000 (2020 Apr 16  0:00)
C0Z1JL1 = ZTF0Csc = C21KXA2 = ZTF0Czu = 'Multijunk'
1 89983U 00000AAQ 20107.49919926  .00000000  00000-0  00000-0 0  8085
2 89983 016.9538 346.8086 6888485 028.2705 039.9332 00.44375036    08

# Worst residual: 110.30 km
# MJD 58956.000000 (2020 Apr 17  0:00)
C0Z1JL1 = ZTF0Csc = C21KXA2 = ZTF0Czu = 'Multijunk'
1 89983U 00000AAQ 20108.49919926  .00000000  00000-0  00000-0 0  8086
2 89983 017.1017 346.9116 6849422 029.3592 194.8384 00.43458967    04

# Worst residual: 200.25 km
# MJD 58957.000000 (2020 Apr 18  0:00)
C0Z1JL1 = ZTF0Csc = C21KXA2 = ZTF0Czu = 'Multijunk'
1 89983U 00000AAQ 20109.49919926  .00000000  00000-0  00000-0 0  8087
2 89983 017.1870 347.2870 6856760 030.1112 350.3116 00.44425481    01

# Worst residual: 107.17 km
# MJD 58958.000000 (2020 Apr 19  0:00)
C0Z1JL1 = ZTF0Csc = C21KXA2 = ZTF0Czu = 'Multijunk'
1 89983U 00000AAQ 20110.49919926  .00000000  00000-0  00000-0 0  8089
2 89983 017.2821 347.2821 6827002 031.2715 146.9576 00.43525308    09

# Worst residual: 137.53 km
# MJD 58959.000000 (2020 Apr 20  0:00)
C0Z1JL1 = ZTF0Csc = C21KXA2 = ZTF0Czu = 'Multijunk'
1 89983U 00000AAQ 20111.49919926  .00000000  00000-0  00000-0 0  8080
2 89983 017.4225 347.6854 6832054 031.6729 301.5325 00.43817662    09

# Worst residual: 88.14 km
# MJD 58960.000000 (2020 Apr 21  0:00)
C0Z1JL1 = ZTF0Csc = C21KXA2 = ZTF0Czu = 'Multijunk'
1 89983U 00000AAQ 20112.49919926  .00000000  00000-0  00000-0 0  8081
2 89983 017.4653 347.7356 6809548 033.0578 098.8363 00.43710552    00

# Worst residual: 102.05 km
# MJD 58961.000000 (2020 Apr 22  0:00)
C0Z1JL1 = ZTF0Csc = C21KXA2 = ZTF0Czu = 'Multijunk'
1 89983U 00000AAQ 20113.49919926  .00000000  00000-0  00000-0 0  8082
2 89983 017.6416 348.0806 6788259 033.4520 253.2059 00.43547794    04

# Worst residual: 159.72 km
# MJD 58962.000000 (2020 Apr 23  0:00)
C0Z1JL1 = ZTF0Csc = C21KXA2 = ZTF0Czu = 'Multijunk'
1 89983U 00000AAQ 20114.49919926  .00000000  00000-0  00000-0 0  8083
2 89983 017.6713 348.2737 6803151 034.4346 050.4928 00.44222837    06

# Worst residual: 105.40 km
# MJD 58963.000000 (2020 Apr 24  0:00)
C0Z1JL1 = ZTF0Csc = C21KXA2 = ZTF0Czu = 'Multijunk'
1 89983U 00000AAQ 20115.49919926  .00000000  00000-0  00000-0 0  8084
2 89983 017.8343 348.4730 6760299 035.3679 205.2246 00.43455830    09

# Worst residual: 147.07 km
# MJD 58964.000000 (2020 Apr 25  0:00)
C0Z1JL1 = ZTF0Csc = C21KXA2 = ZTF0Czu = 'Multijunk'
1 89983U 00000AAQ 20116.49919926  .00000000  00000-0  00000-0 0  8085
2 89983 017.8997 348.8529 6766457 036.1547 001.0354 00.44486171    04

# Worst residual: 93.46 km
# MJD 58965.000000 (2020 Apr 26  0:00)
C0Z1JL1 = ZTF0Csc = C21KXA2 = ZTF0Czu = 'Multijunk'
1 89983U 00000AAQ 20117.49919926  .00000000  00000-0  00000-0 0  8086
2 89983 018.0220 348.9228 6739220 037.2595 157.2949 00.43486361    00

# Worst residual: 176.39 km
# MJD 58966.000000 (2020 Apr 27  0:00)
C0Z1JL1 = ZTF0Csc = C21KXA2 = ZTF0Czu = 'Multijunk'
1 89983U 00000AAQ 20118.49919926  .00000000  00000-0  00000-0 0  8087
2 89983 018.1413 349.4314 6752609 037.7198 311.8485 00.43975492    08

# Worst residual: 82.02 km
# MJD 58967.000000 (2020 Apr 28  0:00)
C0Z1JL1 = ZTF0Csc = C21KXA2 = ZTF0Czu = 'Multijunk'
1 89983U 00000AAQ 20119.49919926  .00000000  00000-0  00000-0 0  8088
2 89983 018.1873 349.4168 6725517 039.0765 109.1669 00.43659634    07

# Worst residual: 100.58 km
# MJD 58968.000000 (2020 Apr 29  0:00)
C0Z1JL1 = ZTF0Csc = C21KXA2 = ZTF0Czu = 'Multijunk'
1 89983U 00000AAQ 20120.49919926  .00000000  00000-0  00000-0 0  8080
2 89983 018.3518 349.8406 6708775 039.4231 263.4555 00.43583395    01

# Worst residual: 182.30 km
# MJD 58969.000000 (2020 Apr 30  0:00)
C0Z1JL1 = ZTF0Csc = C21KXA2 = ZTF0Czu = 'Multijunk'
1 89983U 00000AAQ 20121.49919926  .00000000  00000-0  00000-0 0  8081
2 89983 018.3828 350.0426 6721982 040.4896 060.8035 00.44106468    00

# Worst residual: 90.44 km
# MJD 58970.000000 (2020 May  1  0:00)
C0Z1JL1 = ZTF0Csc = C21KXA2 = ZTF0Czu = 'Multijunk'
1 89983U 00000AAQ 20122.49919926  .00000000  00000-0  00000-0 0  8082
2 89983 018.5532 350.3301 6680154 041.2725 215.3687 00.43464176    06

# Worst residual: 104.47 km
# MJD 58971.000000 (2020 May  2  0:00)
C0Z1JL1 = ZTF0Csc = C21KXA2 = ZTF0Czu = 'Multijunk'
1 89983U 00000AAQ 20123.49919926  .00000000  00000-0  00000-0 0  8083
2 89983 018.5996 350.7110 6683774 042.0435 011.6135 00.44514152    06

# Worst residual: 89.97 km
# MJD 58972.000000 (2020 May  3  0:00)
C0Z1JL1 = ZTF0Csc = C21KXA2 = ZTF0Czu = 'Multijunk'
1 89983U 00000AAQ 20124.49919926  .00000000  00000-0  00000-0 0  8084
2 89983 018.7188 350.8251 6663134 043.1434 167.3354 00.43461551    02

# Worst residual: 201.94 km
# MJD 58973.000000 (2020 May  4  0:00)
C0Z1JL1 = ZTF0Csc = C21KXA2 = ZTF0Czu = 'Multijunk'
1 89983U 00000AAQ 20125.49919926  .00000000  00000-0  00000-0 0  8085
2 89983 018.8221 351.3310 6686356 043.7113 322.1461 00.44108017    00
